*******************************************************************************
JPL/HORIZONS                 47 Aglaja (A857 RA)           2020-Jun-20 08:00:27
Rec #:      47 (+COV) Soln.date: 2020-May-20_00:57:13   # obs: 3230 (1860-2020)
 
IAU76/J2000 helio. ecliptic osc. elements (au, days, deg., period=Julian yrs):
 
  EPOCH=  2455216.5 ! 2010-Jan-20.00 (TDB)         Residual RMS= .30351
   EC= .1344504448786383   QR= 2.49097230992302    TP= 2454766.2836012589
   OM= 3.142376845379734   W=  313.9552918672352   IN= 4.984862528897204
   A= 2.877908370681043    MA= 90.88871013248929   ADIST= 3.264844431439067
   PER= 4.88229            N= .201877826           ANGMOM= .028917361
   DAN= 2.58468            DDN= 3.11674            L= 317.2061744
   B= -3.5863263           MOID= 1.47947001        TP= 2008-Oct-26.7836012589
 
Asteroid physical parameters (km, seconds, rotational period in hours):
   GM= n.a.                RAD= 84.087             ROTPER= 13.178
   H= 8.1                  G= .160                 B-V= .665
                           ALBEDO= .082            STYP= B
 
ASTEROID comments: 
1: soln ref.= JPL#115, OCC=0
2: source=ORB
*******************************************************************************
 
 
*******************************************************************************
Ephemeris / WWW_USER Sat Jun 20 08:00:27 2020 Pasadena, USA      / Horizons
*******************************************************************************
Target body name: 47 Aglaja (A857 RA)             {source: JPL#115}
Center body name: Solar System Barycenter (0)     {source: DE431}
Center-site name: BODY CENTER
*******************************************************************************
Start time      : A.D. 1969-Jun-28 00:00:00.0000 TDB
Stop  time      : A.D. 2071-May-04 00:00:00.0000 TDB
Step-size       : 7200 minutes
*******************************************************************************
Center geodetic : 0.00000000,0.00000000,0.0000000 {E-lon(deg),Lat(deg),Alt(km)}
Center cylindric: 0.00000000,0.00000000,0.0000000 {E-lon(deg),Dxy(km),Dz(km)}
Center radii    : (undefined)                                                  
Small perturbers: Yes                             {source: SB431-N16}
Output units    : AU-D
Output type     : GEOMETRIC cartesian states
Output format   : 2 (position and velocity)
Reference frame : Ecliptic of J2000.0
*******************************************************************************
Initial IAU76/J2000 heliocentric ecliptic osculating elements (au, days, deg.):
  EPOCH=  2455216.5 ! 2010-Jan-20.00 (TDB)         Residual RMS= .30351        
   EC= .1344504448786383   QR= 2.49097230992302    TP= 2454766.2836012589      
   OM= 3.142376845379734   W=  313.9552918672352   IN= 4.984862528897204       
  Equivalent ICRF heliocentric equatorial cartesian coordinates (au, au/d):
   X= 1.325211602260599E+00  Y= 2.306393762616218E+00  Z= 1.240754052945819E+00
  VX=-8.193723368663997E-03 VY= 4.931186351633442E-03 VZ= 2.712515630638090E-03
Asteroid physical parameters (km, seconds, rotational period in hours):        
   GM= n.a.                RAD= 84.087             ROTPER= 13.178              
   H= 8.1                  G= .160                 B-V= .665                   
                           ALBEDO= .082            STYP= B                     
*******************************************************************************
            JDTDB,            Calendar Date (TDB),        delta-T,                      X,                      Y,                      Z,                     VX,                     VY,                     VZ,
******************************************************************************************************************************************************************************************************************
$$SOE
2447540.500000000, A.D. 1989-Jan-14 00:00:00.0000,      56.184306,  1.089947377100885E+00, -2.259785457417100E+00, -2.028760067825531E-01,  1.014601126433893E-02,  5.399781591902205E-03,  4.150991369237845E-04,
2447545.500000000, A.D. 1989-Jan-19 00:00:00.0000,      56.184445,  1.140420464425273E+00, -2.232264937271406E+00, -2.007536752625107E-01,  1.004239582068852E-02,  5.608098218129486E-03,  4.338094025492468E-04,
2447550.500000000, A.D. 1989-Jan-24 00:00:00.0000,      56.184581,  1.190363090404887E+00, -2.203707878029903E+00, -1.985381641075530E-01,  9.933833614050811E-03,  5.814373191377747E-03,  4.523688589396024E-04,
2447555.500000000, A.D. 1989-Jan-29 00:00:00.0000,      56.184712,  1.239750629007824E+00, -2.174124847891604E+00, -1.962302593112312E-01,  9.820368651304161E-03,  6.018462675947166E-03,  4.707647342369942E-04,
2447560.500000000, A.D. 1989-Feb-03 00:00:00.0000,      56.184839,  1.288558687636171E+00, -2.143527131958777E+00, -1.938308106020316E-01,  9.702050297626911E-03,  6.220223787483862E-03,  4.889843099262297E-04,
2447565.500000000, A.D. 1989-Feb-08 00:00:00.0000,      56.184961,  1.336763133882686E+00, -2.111926726860713E+00, -1.913407311224707E-01,  9.578933260207733E-03,  6.419514840906512E-03,  5.070149425455662E-04,
2447570.500000000, A.D. 1989-Feb-13 00:00:00.0000,      56.185074,  1.384340122170219E+00, -2.079336334136534E+00, -1.887609969991564E-01,  9.451077557561702E-03,  6.616195598768365E-03,  5.248440855824264E-04,
2447575.500000000, A.D. 1989-Feb-18 00:00:00.0000,      56.185178,  1.431266120201065E+00, -2.045769352376184E+00, -1.860926468030051E-01,  9.318548474162233E-03,  6.810127519527012E-03,  5.424593115063073E-04,
2447580.500000000, A.D. 1989-Feb-23 00:00:00.0000,      56.185272,  1.477517935142811E+00, -2.011239868121495E+00, -1.833367808991200E-01,  9.181416500456957E-03,  7.001174005144097E-03,  5.598483338505410E-04,
2447585.500000000, A.D. 1989-Feb-28 00:00:00.0000,      56.185357,  1.523072739478493E+00, -1.975762645532573E+00, -1.804945606864088E-01,  9.039757258647066E-03,  7.189200647180496E-03,  5.769990292115662E-04,
2447590.500000000, A.D. 1989-Mar-05 00:00:00.0000,      56.185433,  1.567908096451136E+00, -1.939353114829843E+00, -1.775672077277322E-01,  8.893651414756242E-03,  7.374075470226700E-03,  5.938994590113675E-04,
2447595.500000000, A.D. 1989-Mar-10 00:00:00.0000,      56.185499,  1.612001985035347E+00, -1.902027359528485E+00, -1.745560027721335E-01,  8.743184577438345E-03,  7.555669171268642E-03,  6.105378908807861E-04,
2447600.500000000, A.D. 1989-Mar-15 00:00:00.0000,      56.185553,  1.655332824370301E+00, -1.863802102489177E+00, -1.714622846713248E-01,  8.588447183745429E-03,  7.733855353579649E-03,  6.269028195612502E-04,
2447605.500000000, A.D. 1989-Mar-20 00:00:00.0000,      56.185594,  1.697879497589025E+00, -1.824694690815559E+00, -1.682874491929978E-01,  8.429534371865407E-03,  7.908510753979437E-03,  6.429829872665545E-04,
2447610.500000000, A.D. 1989-Mar-25 00:00:00.0000,      56.185622,  1.739621374978738E+00, -1.784723079633685E+00, -1.650329477337474E-01,  8.266545840829620E-03,  8.079515462674929E-03,  6.587674034693906E-04,
2447615.500000000, A.D. 1989-Mar-30 00:00:00.0000,      56.185639,  1.780538336407658E+00, -1.743905814791936E+00, -1.617002859345791E-01,  8.099585697462655E-03,  8.246753135152933E-03,  6.742453640747482E-04,
2447620.500000000, A.D. 1989-Apr-04 00:00:00.0000,      56.185645,  1.820610792955973E+00, -1.702262014522561E+00, -1.582910222021880E-01,  7.928762291245148E-03,  8.410111195511397E-03,  6.894064699277907E-04,
2447625.500000000, A.D. 1989-Apr-09 00:00:00.0000,      56.185640,  1.859819707692716E+00, -1.659811350109814E+00, -1.548067661394926E-01,  7.754188037943913E-03,  8.569481030311991E-03,  7.042406445928237E-04,
2447630.500000000, A.D. 1989-Apr-14 00:00:00.0000,      56.185622,  1.898146615544203E+00, -1.616574025614743E+00, -1.512491768892364E-01,  7.575979232700369E-03,  8.724758171904224E-03,  7.187381513361495E-04,
2447635.500000000, A.D. 1989-Apr-19 00:00:00.0000,      56.185591,  1.935573642202451E+00, -1.572570756711371E+00, -1.476199613948050E-01,  7.394255852980095E-03,  8.875842470460598E-03,  7.328896092461671E-04,
2447640.500000000, A.D. 1989-Apr-24 00:00:00.0000,      56.185547,  1.972083522023593E+00, -1.527822748691487E+00, -1.439208725827280E-01,  7.209141351693332E-03,  9.022638254499303E-03,  7.466860084294270E-04,
2447645.500000000, A.D. 1989-Apr-29 00:00:00.0000,      56.185493,  2.007659614868694E+00, -1.482351673695603E+00, -1.401537074716336E-01,  7.020762441207486E-03,  9.165054479863365E-03,  7.601187242233411E-04,
2447650.500000000, A.D. 1989-May-04 00:00:00.0000,      56.185430,  2.042285921844470E+00, -1.436179647228800E+00, -1.363203052127289E-01,  6.829248869532708E-03,  9.303004866656665E-03,  7.731795303633427E-04,
2447655.500000000, A.D. 1989-May-09 00:00:00.0000,      56.185358,  2.075947099908008E+00, -1.389329204023770E+00, -1.324225450671747E-01,  6.634733189906431E-03,  9.436408023293628E-03,  7.858606110496511E-04,
2447660.500000000, A.D. 1989-May-14 00:00:00.0000,      56.185274,  2.108628475304811E+00, -1.341823273317158E+00, -1.284623443259633E-01,  6.437350524664872E-03,  9.565187557064115E-03,  7.981545718737483E-04,
2447665.500000000, A.D. 1989-May-19 00:00:00.0000,      56.185180,  2.140316055813558E+00, -1.293685153607460E+00, -1.244416561780795E-01,  6.237238324209604E-03,  9.689272170906786E-03,  8.100544495741944E-04,
2447670.500000000, A.D. 1989-May-24 00:00:00.0000,      56.185077,  2.170996541775285E+00, -1.244938486963940E+00, -1.203624675328616E-01,  6.034536121952077E-03,  9.808595746199826E-03,  8.215537205972324E-04,
2447675.500000000, A.D. 1989-May-29 00:00:00.0000,      56.184967,  2.200657335889180E+00, -1.195607232956858E+00, -1.162267968025864E-01,  5.829385286181158E-03,  9.923097411431138E-03,  8.326463084432595E-04,
